# Data for our solar system.

"Mercury" "Sol"
{
	Texture "mercury.jpg"
	BumpMap "mercurybump.jpg"
	BumpHeight 2.5
	Radius 2440

	CustomOrbit "mercury"
	EllipticalOrbit {
	Period            0.2408
	SemiMajorAxis     0.3871
	Eccentricity      0.2056
	Inclination       7.0049
	AscendingNode    48.33167
	LongOfPericenter 77.456
        MeanLongitude   252.251
	}

	RotationPeriod 1047.509
	Obliquity         7.01
	LongOfRotationAxis 228.31

	Albedo            0.06
}

"Venus" "Sol"
{
	Texture "venus.jpg"
	# BumpMap "venusbump.jpg"
	HazeColor [ 0.5 0.35 0.2 ]
	HazeDensity 0.35
	Radius 6052

	Atmosphere {
		Height 60
		Lower [ 0.8 0.8 0.5 ]
		Upper [ 0.6 0.6 0.6 ]
		Sky [ 0.8 0.8 0.5 ]
	}

	CustomOrbit "venus"
	EllipticalOrbit {
		Period            0.6152
		SemiMajorAxis     0.7233
		Eccentricity      0.0068
		Inclination       3.3947
		AscendingNode     76.681
		LongOfPericenter 131.533
	        MeanLongitude    181.979
	}

	RotationPeriod  5832.444
	Obliquity       177.4
	LongOfRotationAxis 302.07

	Albedo            0.77
}

"Earth" "Sol"
{
	Texture "earth.png"
	# Texture "earth8k.dds"
	NightTexture "earthnight.jpg"
	# CompressTexture true
	Color [ 0.85 0.85 1.0 ]
	SpecularColor [ 0.5 0.5 0.55 ]
	SpecularPower 25.0
	HazeColor [ 1 1 1 ]
	HazeDensity 0.3
	Radius 6378
	# Oblateness 0.003

	Atmosphere {
		Height 60
		Lower [ 0.5 0.5 0.65 ]
		Upper [ 0.3 0.3 0.6 ]
		Sky [ 0.3 0.6 0.9 ]
		CloudHeight 7
		CloudSpeed 65
		CloudMap "earth-clouds.png"
	}

	CustomOrbit "vsop87-earth"
	EllipticalOrbit {	
		Period            1.0000
		SemiMajorAxis     1.0000
		Eccentricity      0.0167
		Inclination       0.0001
		AscendingNode   348.739
		LongOfPericenter 102.947
	        MeanLongitude   100.464
	}

	RotationPeriod   23.9344694 # 23.93419
	RotationOffset   280.5    # offset at default epoch J2000
	Obliquity        -23.45
	Albedo            0.30
}

"Moon" "Sol/Earth"
{
	Texture "moon.jpg"
	BumpMap "moonbump1k.jpg"
	# Texture "moon4k.dds"
	BumpHeight 0.7
	Radius   1737.53
	Oblateness 0.002

	CustomOrbit "moon"
	EllipticalOrbit {
		Period           27.321661
		SemiMajorAxis    384400
		Eccentricity     0.054900
		Inclination      5.15
	}

	RotationOffset 		43

	Albedo           0.12
}

"Mir" "Sol/Earth"
{
	Class "spacecraft"
	Mesh "mir.3ds"
	Radius 0.015      # Mir is about 30 meters long

	# Assuming these elements to be constant isn't accurate . . .
	# Celestia really needs to support better orbit models.
	EllipticalOrbit {
		Period            0.06415338
		SemiMajorAxis  6769
		Eccentricity      0.0000831
		Inclination      51.6461
		AscendingNode    83.8459
		ArgOfPericenter 296.4901
		MeanAnomaly      63.6005
	}

	Albedo 	      0.10
}

"ISS" "Sol/Earth"
{
	Class "spacecraft"
	Mesh "iss.3ds"
	Radius 0.015

	EllipticalOrbit {
		Period          0.064176392
		SemiMajorAxis   6767
		Eccentricity    0.0016886
		Inclination      51.5684
		AscendingNode   343.1518
		ArgOfPericenter 346.2476
		MeanAnomaly      13.8216
		Epoch           2452028.18381755
	}

	Albedo        0.10
}

"Hubble" "Sol/Earth"
{
	Class "spacecraft"
	Mesh "hubble.3ds"
	Radius 0.015

	EllipticalOrbit {
		Period          0.06903
		SemiMajorAxis   6767
		Eccentricity    0.0012082
		Inclination      28.4675
		AscendingNode    51.0100
		ArgOfPericenter  27.0378
		MeanAnomaly     333.0836
		Epoch           2452028.18381755
	}

	Albedo       0.10
}

"Mars" "Sol"
{
	Texture "mars.jpg"
	# Texture "mars4k.dds"
	BumpMap "marsbump1k.jpg"
	BumpHeight 2.5
	Color   [ 1 0.75 0.7 ]
	HazeColor [ 1 1 1 ]
	HazeDensity 0.45
	Radius 3394
	# Oblateness 0.006

	Atmosphere {
		Height 30
		Lower [ 0.8 0.6 0.6 ]
		Upper [ 0.7 0.3 0.3 ]
		Sky [ 0.83 0.75 0.65 ]
	}

	CustomOrbit "mars"
	EllipticalOrbit
	{
	Period            1.8809
	SemiMajorAxis     1.5237
	Eccentricity      0.0934
	Inclination       1.8506
	AscendingNode     49.479
	LongOfPericenter 336.041
        MeanLongitude    355.453
	}

	RotationPeriod    24.622962
	Obliquity         23.98
	LongOfRotationAxis 262.78

	Albedo            0.150
}

"Phobos" "Sol/Mars"
{
	Mesh "phobos.3ds"
	Texture "phobos.jpg"
	# BumpMap "phobosbump.jpg"
	# BumpHeight 5
	Radius 11

	EllipticalOrbit
	{
	Period         0.318910
	SemiMajorAxis  9377.2
	Eccentricity   0.0151
	Inclination    1.082
	MeanAnomaly    50
	}

	Albedo         0.07
}

"Deimos" "Sol/Mars"
{
	Mesh "deimos.3ds"
	Texture "deimos.jpg"
	Radius 6

	EllipticalOrbit
	{
	Period         1.262441
	SemiMajorAxis  23463.2
	Eccentricity   0.00033
	Inclination    1.791
	MeanAnomaly    150
	}

	Albedo         0.08
}

"Jupiter" "Sol"
{
	Texture "jupiter.jpg"
	HazeColor [ 0.4 0.45 0.5 ]
	HazeDensity 0.3

	Radius 71398
	Oblateness 0.064

	CustomOrbit "jupiter"
	EllipticalOrbit
	{
	Period           11.8622
	SemiMajorAxis     5.2034
	Eccentricity      0.0484
	Inclination       1.3053
	AscendingNode   100.556
	LongOfPericenter 14.7539
        MeanLongitude    34.404
	}

	RotationPeriod    9.92425
	Obliquity         3.08
	LongOfRotationAxis 0 # Not correct, but necessary with current 
                             # calculations of satellite positions
	                     # old values: 337.68, 157.68
	Albedo            0.51
}

"Amalthea" "Sol/Jupiter"
{
	Texture "asteroid.jpg"
	BlendTexture true
	Color   [ 0.5 0.12 0.16 ]
	Mesh "amalthea.3ds"
	Radius    124

	EllipticalOrbit
	{
	Period          0.498179
	SemiMajorAxis   181300
	Eccentricity    0.003
	Inclination     0.40
	MeanAnomaly     210
	}

	Albedo          0.06
}

"Io" "Sol/Jupiter"
{
	Texture "io.jpg"
	# Texture "io2k.dds"
	Radius   1821

	CustomOrbit "io"
	EllipticalOrbit
	{
	Epoch 2443000.00038375
	Period         1.769138
	SemiMajorAxis  421600
	Eccentricity   0.0041
	Inclination    0.040
	AscendingNode    312.981
	LongOfPericenter  97.735
	MeanLongitude    106.724
	}

	Albedo         0.61
}

"Europa" "Sol/Jupiter"
{
	Texture "europa.jpg"
	Radius   1565

	CustomOrbit "europa"
	EllipticalOrbit
	{
	Epoch 2443000.00038375
	Period         3.551810
	SemiMajorAxis  670900
	Eccentricity   0.0101
	Inclination    0.470
	AscendingNode    101.087
	LongOfPericenter 155.512
	MeanLongitude    176.377
	}

	Albedo         0.64
}

"Ganymede" "Sol/Jupiter"
{
	Texture "ganymede.jpg"
	Radius   2634

	CustomOrbit "ganymede"
	EllipticalOrbit
	{
	Epoch 2443000.00038375
	Period         7.154553
	SemiMajorAxis  1070000
	Eccentricity   0.0015
	Inclination    0.195
	AscendingNode    119.841
	LongOfPericenter 188.831
	MeanLongitude    121.206
	}

	Albedo         0.42
}

"Callisto" "Sol/Jupiter"
{
	Texture "callisto.jpg"
	Radius   2403

	CustomOrbit "callisto"
	EllipticalOrbit
	{
	Epoch 2443000.00038375
	Period        16.689018
	SemiMajorAxis  1883000
	Eccentricity   0.007
	Inclination    0.281
	AscendingNode    323.265
	LongOfPericenter 335.933
	MeanLongitude     85.091
	}

	Albedo         0.20
}

"Galileo" "Sol/Jupiter"
{
	Class "spacecraft"
	Mesh "galileo.3ds"
	Radius   0.01

	EllipticalOrbit
	{
	Period        64.4068
	SemiMajorAxis  4632880
	Eccentricity   0.831774
	Inclination    4.213
	AscendingNode  59.562
	ArgOfPericenter 97.224
	TrueAnomaly    -66.619
	}

	Albedo         0.50
}

"Saturn" "Sol"
{
	Texture "saturn.jpg"
	Color [ 1.0 1.0 0.85 ]
	HazeColor [ 0.0 0.0 1 ]
	HazeDensity 0.25
	Radius 60330
	Oblateness 0.1076

	CustomOrbit "saturn"
	EllipticalOrbit
	{
	Period           29.4577
	SemiMajorAxis     9.5371
	Eccentricity      0.0542
	Inclination       2.4845
	AscendingNode   113.715
	LongOfPericenter 92.432
        MeanLongitude    49.944
	}

	RotationPeriod      10.65622
	Obliquity           28.052 # old value: 26.73
	LongOfRotationAxis  168

	Albedo            0.50

	Rings {
		Inner   74658
		Outer  140000
		Texture "saturn-rings.png"

		# Bjorn Jonsson <http://www.mmedia.is/~bjj> recommends this
		# color for rendering Saturn's rings.  No idea if it's right,
		# but it looks nice
		Color  [ 1.0 0.88 0.82 ]
	}
}

"Mimas" "Sol/Saturn"
{
	Texture "mimas.jpg"
	# Texture "white.jpg"
	# BumpMap "mimasbump.jpg"
	# BumpHeight 10.0
	Color [ 0.75 0.63 0.58 ]
	BlendTexture true
	Radius    199

	CustomOrbit "mimas"
	EllipticalOrbit
	{
	Period         0.9424218
	SemiMajorAxis  185520
	Eccentricity   0.0202
	Inclination    1.53
	MeanAnomaly    23
	}

	Albedo         0.5
}

"Enceladus" "Sol/Saturn"
{
	Texture "asteroid.jpg"
	Radius     249

	CustomOrbit "enceladus"
	EllipticalOrbit
	{
	Period         1.370218
	SemiMajorAxis  238020
	Eccentricity   0.0045
	Inclination    0.02
	MeanAnomaly    215
	}

	Albedo         0.99
}

"Tethys" "Sol/Saturn"
{
	Texture "tethys.jpg"
	Radius     530

	CustomOrbit "tethys"
	EllipticalOrbit
	{
	Period         1.887802
	SemiMajorAxis  294660
	Eccentricity   0.0
	Inclination    1.09
	MeanAnomaly    98
	}

	Albedo         0.9
}

"Dione" "Sol/Saturn"
{
	Texture "dione.jpg"
	Radius     560

	CustomOrbit "dione"
	EllipticalOrbit
	{
	Period         2.736915
	SemiMajorAxis  377400
	Eccentricity   0.0022
	Inclination    0.02
	MeanAnomaly    310
	}

	Albedo         0.7
}

"Rhea" "Sol/Saturn"
{
	Texture "rhea.jpg"
	Radius     764

	CustomOrbit "rhea"
	EllipticalOrbit
	{
	Period         4.517500
	SemiMajorAxis  527040
	Eccentricity   0.0010
	Inclination    0.35
	MeanAnomaly    190
	}

	Albedo         0.7
}

"Titan" "Sol/Saturn"
{
	Texture "titan.jpg"
	Color [ 1.0 0.9 0.75 ]
	HazeColor [ 0.2 0.5 1 ]
	HazeDensity 1
	Radius   2575

	Atmosphere {
		Height 60
		Lower [ 0.8 0.4 0.1 ]
		Upper [ 0.0 0.0 0.9 ]
		Sky [ 0.8 0.4 0.1 ]
	}

	CustomOrbit "titan"
	EllipticalOrbit
	{
	Period        15.945421
	SemiMajorAxis  1221850
	Eccentricity   0.0292
	Inclination    0.33
	MeanAnomaly    120
	}

	Albedo         0.21
}

